0 FENGYUN 1C DEB
1 36211U 99025DUL 13283.31651884  .00000803  00000-0  28178-3 0  1791
2 36211 098.9035 320.5799 0301865 101.0072 262.5221 14.15219729313185
0 FENGYUN 1C DEB
1 36211U 99025DUL 13286.35661853  .00000833  00000-0  29078-3 0  1800
2 36211 098.9033 323.6184 0302743 092.4488 271.1487 14.15225562313615
0 FENGYUN 1C DEB
1 36211U 99025DUL 13291.87114326  .00001052  00000-0  36448-3 0  1815
2 36211 098.9014 329.1234 0301399 076.5719 286.9906 14.15240965314397
0 FENGYUN 1C DEB
1 36211U 99025DUL 13295.33531798  .00001137  00000-0  39310-3 0  1822
2 36211 098.9008 332.5858 0300916 066.7833 296.5049 14.15250362314883
